{
  "type": "FeatureCollection",
  "features": [
    {
      "type": "Feature",
      "properties": {
        "norad_id": 33913,
        "name": "COSMOS 2251 DEB",
        "group": "cosmos-2251-debris",
        "lat": 56.150557477741955,
        "lon": -155.0596773810184,
        "alt_km": 750.2172275923604,
        "timestamp": "2025-12-14T20:40:32.165883+00:00",
        "meta_object_name": "COSMOS 2251 DEB",
        "meta_object_id": "1993-036DS",
        "meta_epoch": "2025-12-13T23:23:44.932704",
        "meta_mean_motion": 14.48492744,
        "meta_eccentricity": 0.00481684,
        "meta_inclination": 74.0331,
        "meta_ra_of_asc_node": 181.331,
        "meta_arg_of_pericenter": 283.6831,
        "meta_mean_anomaly": 194.0848,
        "meta_ephemeris_type": 0,
        "meta_classification_type": "U",
        "meta_norad_cat_id": 33913,
        "meta_element_set_no": 999,
        "meta_rev_at_epoch": 88475,
        "meta_bstar": 0.00068681874,
        "meta_mean_motion_dot": 2.587e-05,
        "meta_mean_motion_ddot": 0,
        "tle_line1": "1 33913U 93036DS  25347.97482561  .00002587  00000+0  68682-3 0  9997",
        "tle_line2": "2 33913  74.0331 181.3310 0048168 283.6831 194.0848 14.48492744884757"
      },
      "geometry": {
        "type": "Point",
        "coordinates": [
          -155.0596773810184,
          56.150557477741955
        ]
      }
    },
    {
      "type": "Feature",
      "properties": {
        "norad_id": 33914,
        "name": "COSMOS 2251 DEB",
        "group": "cosmos-2251-debris",
        "lat": 14.721443171957334,
        "lon": -172.69883018622636,
        "alt_km": 847.6510989944836,
        "timestamp": "2025-12-14T20:40:32.165893+00:00",
        "meta_object_name": "COSMOS 2251 DEB",
        "meta_object_id": "1993-036DT",
        "meta_epoch": "2025-12-14T07:42:41.260896",
        "meta_mean_motion": 13.71986248,
        "meta_eccentricity": 0.0301074,
        "meta_inclination": 74.0914,
        "meta_ra_of_asc_node": 12.4884,
        "meta_arg_of_pericenter": 115.1419,
        "meta_mean_anomaly": 259.8291,
        "meta_ephemeris_type": 0,
        "meta_classification_type": "U",
        "meta_norad_cat_id": 33914,
        "meta_element_set_no": 999,
        "meta_rev_at_epoch": 84103,
        "meta_bstar": 0.00040593331,
        "meta_mean_motion_dot": 4.9e-06,
        "meta_mean_motion_ddot": 0,
        "tle_line1": "1 33914U 93036DT  25348.32131089  .00000490  00000+0  40593-3 0  9996",
        "tle_line2": "2 33914  74.0914  12.4884 0301074 115.1419 259.8291 13.71986248841032"
      },
      "geometry": {
        "type": "Point",
        "coordinates": [
          -172.69883018622636,
          14.721443171957334
        ]
      }
    },
    {
      "type": "Feature",
      "properties": {
        "norad_id": 33915,
        "name": "COSMOS 2251 DEB",
        "group": "cosmos-2251-debris",
        "lat": 41.66661888445592,
        "lon": 44.970048214286436,
        "alt_km": 755.2991878318444,
        "timestamp": "2025-12-14T20:40:32.165903+00:00",
        "meta_object_name": "COSMOS 2251 DEB",
        "meta_object_id": "1993-036DU",
        "meta_epoch": "2025-12-14T05:43:46.601184",
        "meta_mean_motion": 14.35087331,
        "meta_eccentricity": 0.01043369,
        "meta_inclination": 74.0435,
        "meta_ra_of_asc_node": 31.3601,
        "meta_arg_of_pericenter": 123.5206,
        "meta_mean_anomaly": 305.4445,
        "meta_ephemeris_type": 0,
        "meta_classification_type": "U",
        "meta_norad_cat_id": 33915,
        "meta_element_set_no": 999,
        "meta_rev_at_epoch": 87779,
        "meta_bstar": 0.0004798714,
        "meta_mean_motion_dot": 1.43e-05,
        "meta_mean_motion_ddot": 0,
        "tle_line1": "1 33915U 93036DU  25348.23873381  .00001430  00000+0  47987-3 0  9994",
        "tle_line2": "2 33915  74.0435  31.3601 0104336 123.5206 305.4445 14.35087331877794"
      },
      "geometry": {
        "type": "Point",
        "coordinates": [
          44.970048214286436,
          41.66661888445592
        ]
      }
    },
    {
      "type": "Feature",
      "properties": {
        "norad_id": 33916,
        "name": "COSMOS 2251 DEB",
        "group": "cosmos-2251-debris",
        "lat": 39.273808661339594,
        "lon": 50.62430438015179,
        "alt_km": 1235.277184154933,
        "timestamp": "2025-12-14T20:40:32.165913+00:00",
        "meta_object_name": "COSMOS 2251 DEB",
        "meta_object_id": "1993-036DV",
        "meta_epoch": "2025-12-14T04:58:15.665664",
        "meta_mean_motion": 13.6861633,
        "meta_eccentricity": 0.03252807,
        "meta_inclination": 74.0527,
        "meta_ra_of_asc_node": 38.1776,
        "meta_arg_of_pericenter": 210.0051,
        "meta_mean_anomaly": 209.2612,
        "meta_ephemeris_type": 0,
        "meta_classification_type": "U",
        "meta_norad_cat_id": 33916,
        "meta_element_set_no": 999,
        "meta_rev_at_epoch": 83911,
        "meta_bstar": 0.00057290898,
        "meta_mean_motion_dot": 6.89e-06,
        "meta_mean_motion_ddot": 0,
        "tle_line1": "1 33916U 93036DV  25348.20712576  .00000689  00000+0  57291-3 0  9994",
        "tle_line2": "2 33916  74.0527  38.1776 0325280 210.0051 209.2612 13.68616330839111"
      },
      "geometry": {
        "type": "Point",
        "coordinates": [
          50.62430438015179,
          39.273808661339594
        ]
      }
    },
    {
      "type": "Feature",
      "properties": {
        "norad_id": 33917,
        "name": "COSMOS 2251 DEB",
        "group": "cosmos-2251-debris",
        "lat": 56.40921882250386,
        "lon": -86.48676430523174,
        "alt_km": 1028.390714228699,
        "timestamp": "2025-12-14T20:40:32.165924+00:00",
        "meta_object_name": "COSMOS 2251 DEB",
        "meta_object_id": "1993-036DW",
        "meta_epoch": "2025-12-14T07:47:18.223008",
        "meta_mean_motion": 13.69363304,
        "meta_eccentricity": 0.03312938,
        "meta_inclination": 74.1069,
        "meta_ra_of_asc_node": 119.7949,
        "meta_arg_of_pericenter": 220.4085,
        "meta_mean_anomaly": 137.1999,
        "meta_ephemeris_type": 0,
        "meta_classification_type": "U",
        "meta_norad_cat_id": 33917,
        "meta_element_set_no": 999,
        "meta_rev_at_epoch": 83755,
        "meta_bstar": 0.00099034607,
        "meta_mean_motion_dot": 1.242e-05,
        "meta_mean_motion_ddot": 0,
        "tle_line1": "1 33917U 93036DW  25348.32451647  .00001242  00000+0  99035-3 0  9995",
        "tle_line2": "2 33917  74.1069 119.7949 0331293 220.4085 137.1999 13.69363304837559"
      },
      "geometry": {
        "type": "Point",
        "coordinates": [
          -86.48676430523174,
          56.40921882250386
        ]
      }
    },
    {
      "type": "Feature",
      "properties": {
        "norad_id": 33920,
        "name": "COSMOS 2251 DEB",
        "group": "cosmos-2251-debris",
        "lat": 15.1883888116192,
        "lon": 109.9469186651412,
        "alt_km": 718.6840413430036,
        "timestamp": "2025-12-14T20:40:32.165934+00:00",
        "meta_object_name": "COSMOS 2251 DEB",
        "meta_object_id": "1993-036DZ",
        "meta_epoch": "2025-12-14T06:45:05.090688",
        "meta_mean_motion": 14.58313469,
        "meta_eccentricity": 0.00381734,
        "meta_inclination": 74.0614,
        "meta_ra_of_asc_node": 295.4984,
        "meta_arg_of_pericenter": 302.0805,
        "meta_mean_anomaly": 57.6655,
        "meta_ephemeris_type": 0,
        "meta_classification_type": "U",
        "meta_norad_cat_id": 33920,
        "meta_element_set_no": 999,
        "meta_rev_at_epoch": 88137,
        "meta_bstar": 0.002063997,
        "meta_mean_motion_dot": 9.628e-05,
        "meta_mean_motion_ddot": 0,
        "tle_line1": "1 33920U 93036DZ  25348.28130892  .00009628  00000+0  20640-2 0  9991",
        "tle_line2": "2 33920  74.0614 295.4984 0038173 302.0805  57.6655 14.58313469881377"
      },
      "geometry": {
        "type": "Point",
        "coordinates": [
          109.9469186651412,
          15.1883888116192
        ]
      }
    },
    {
      "type": "Feature",
      "properties": {
        "norad_id": 33922,
        "name": "COSMOS 2251 DEB",
        "group": "cosmos-2251-debris",
        "lat": -55.695283529549855,
        "lon": -11.426671563137953,
        "alt_km": 717.9454775736785,
        "timestamp": "2025-12-14T20:40:32.165944+00:00",
        "meta_object_name": "COSMOS 2251 DEB",
        "meta_object_id": "1993-036EB",
        "meta_epoch": "2025-12-13T21:04:41.637216",
        "meta_mean_motion": 14.49512955,
        "meta_eccentricity": 0.00232615,
        "meta_inclination": 74.0468,
        "meta_ra_of_asc_node": 145.6285,
        "meta_arg_of_pericenter": 256.1442,
        "meta_mean_anomaly": 254.4631,
        "meta_ephemeris_type": 0,
        "meta_classification_type": "U",
        "meta_norad_cat_id": 33922,
        "meta_element_set_no": 999,
        "meta_rev_at_epoch": 88594,
        "meta_bstar": 0.00064646832,
        "meta_mean_motion_dot": 2.46e-05,
        "meta_mean_motion_ddot": 0,
        "tle_line1": "1 33922U 93036EB  25347.87825969  .00002460  00000+0  64647-3 0  9996",
        "tle_line2": "2 33922  74.0468 145.6285 0023261 256.1442 254.4631 14.49512955885943"
      },
      "geometry": {
        "type": "Point",
        "coordinates": [
          -11.426671563137953,
          -55.695283529549855
        ]
      }
    }
  ]
}